{"type": "FeatureCollection", "features": [ {"type": "Feature", "properties": {"norad_id": 39019, "name": "PLEIADES 1B", "group": "resource", "lat": 34.75167001809368, "lon": 64.69483317824618, "alt_km": 694.9872682718196, "timestamp": "2025-12-23T22:42:32.634996+00:00", "meta": {"OBJECT_NAME": "PLEIADES 1B", "OBJECT_ID": "2012-068A", "EPOCH": "2025-12-23T07:43:49.842624", "MEAN_MOTION": 14.58562152, "ECCENTRICITY": 0.00011633, "INCLINATION": 98.1786, "RA_OF_ASC_NODE": 69.8069, "ARG_OF_PERICENTER": 86.0925, "MEAN_ANOMALY": 274.0407, "EPHEMERIS_TYPE": 0, "CLASSIFICATION_TYPE": "U", "NORAD_CAT_ID": 39019, "ELEMENT_SET_NO": 999, "REV_AT_EPOCH": 69521, "BSTAR": 0.00010891397, "MEAN_MOTION_DOT": 4.61e-06, "MEAN_MOTION_DDOT": 0}, "tle": {"line1": "1 39019U 12068A   25357.32210466  .00000461  00000+0  10891-3 0  9997", "line2": "2 39019  98.1786  69.8069 0001163  86.0925 274.0407 14.58562152695218"}}, "geometry": {"type": "Point", "coordinates": [64.69483317824618, 34.75167001809368]}}, {"type": "Feature", "properties": {"norad_id": 39030, "name": "GOKTURK 2", "group": "resource", "lat": -24.474754238719264, "lon": 15.52249590874573, "alt_km": 649.924020641578, "timestamp": "2025-12-23T22:42:32.635006+00:00", "meta": {"OBJECT_NAME": "GOKTURK 2", "OBJECT_ID": "2012-073A", "EPOCH": "2025-12-23T07:08:04.788960", "MEAN_MOTION": 14.75303936, "ECCENTRICITY": 0.00013738, "INCLINATION": 97.6883, "RA_OF_ASC_NODE": 198.4312, "ARG_OF_PERICENTER": 107.4524, "MEAN_ANOMALY": 252.6836, "EPHEMERIS_TYPE": 0, "CLASSIFICATION_TYPE": "U", "NORAD_CAT_ID": 39030, "ELEMENT_SET_NO": 999, "REV_AT_EPOCH": 69857, "BSTAR": 5.6564321e-05, "MEAN_MOTION_DOT": 3.36e-06, "MEAN_MOTION_DDOT": 0}, "tle": {"line1": "1 39030U 12073A   25357.29727765  .00000336  00000+0  56564-4 0  9996", "line2": "2 39030  97.6883 198.4312 0001373 107.4524 252.6836 14.75303936698571"}}, "geometry": {"type": "Point", "coordinates": [15.52249590874573, -24.474754238719264]}}, {"type": "Feature", "properties": {"norad_id": 39084, "name": "LANDSAT 8", "group": "resource", "lat": 32.39963368468373, "lon": -108.89235549480912, "alt_km": 700.1842663102298, "timestamp": "2025-12-23T22:42:32.635016+00:00", "meta": {"OBJECT_NAME": "LANDSAT 8", "OBJECT_ID": "2013-008A", "EPOCH": "2025-12-23T03:54:26.748576", "MEAN_MOTION": 14.5711285, "ECCENTRICITY": 0.00010631, "INCLINATION": 98.2058, "RA_OF_ASC_NODE": 65.0818, "ARG_OF_PERICENTER": 92.206, "MEAN_ANOMALY": 267.926, "EPHEMERIS_TYPE": 0, "CLASSIFICATION_TYPE": "U", "NORAD_CAT_ID": 39084, "ELEMENT_SET_NO": 999, "REV_AT_EPOCH": 67226, "BSTAR": 0.00010478207, "MEAN_MOTION_DOT": 4.27e-06, "MEAN_MOTION_DDOT": 0}, "tle": {"line1": "1 39084U 13008A   25357.16280959  .00000427  00000+0  10478-3 0  9993", "line2": "2 39084  98.2058  65.0818 0001063  92.2060 267.9260 14.57112850672264"}}, "geometry": {"type": "Point", "coordinates": [-108.89235549480912, 32.39963368468373]}}, {"type": "Feature", "properties": {"norad_id": 39086, "name": "SARAL", "group": "resource", "lat": -51.21864546088377, "lon": -9.061831816187759, "alt_km": 791.1598171030064, "timestamp": "2025-12-23T22:42:32.635026+00:00", "meta": {"OBJECT_NAME": "SARAL", "OBJECT_ID": "2013-009A", "EPOCH": "2025-12-23T06:32:43.970496", "MEAN_MOTION": 14.32760508, "ECCENTRICITY": 0.00029638, "INCLINATION": 98.5503, "RA_OF_ASC_NODE": 181.0656, "ARG_OF_PERICENTER": 89.0071, "MEAN_ANOMALY": 271.1452, "EPHEMERIS_TYPE": 0, "CLASSIFICATION_TYPE": "U", "NORAD_CAT_ID": 39086, "ELEMENT_SET_NO": 999, "REV_AT_EPOCH": 67041, "BSTAR": 5.6791098e-05, "MEAN_MOTION_DOT": 1.11e-06, "MEAN_MOTION_DDOT": 0}, "tle": {"line1": "1 39086U 13009A   25357.27273114  .00000111  00000+0  56791-4 0  9992", "line2": "2 39086  98.5503 181.0656 0002963  89.0071 271.1452 14.32760508670416"}}, "geometry": {"type": "Point", "coordinates": [-9.061831816187759, -51.21864546088377]}}, {"type": "Feature", "properties": {"norad_id": 39150, "name": "GAOFEN-1", "group": "resource", "lat": -27.94805649751941, "lon": 72.64896883452495, "alt_km": 655.7147854963177, "timestamp": "2025-12-23T22:42:32.635049+00:00", "meta": {"OBJECT_NAME": "GAOFEN-1", "OBJECT_ID": "2013-018A", "EPOCH": "2025-12-23T06:34:20.570016", "MEAN_MOTION": 14.76495785, "ECCENTRICITY": 0.00184791, "INCLINATION": 97.9317, "RA_OF_ASC_NODE": 67.7467, "ARG_OF_PERICENTER": 111.0246, "MEAN_ANOMALY": 249.2943, "EPHEMERIS_TYPE": 0, "CLASSIFICATION_TYPE": "U", "NORAD_CAT_ID": 39150, "ELEMENT_SET_NO": 999, "REV_AT_EPOCH": 68228, "BSTAR": 5.9005221e-05, "MEAN_MOTION_DOT": 3.61e-06, "MEAN_MOTION_DDOT": 0}, "tle": {"line1": "1 39150U 13018A   25357.27384919  .00000361  00000+0  59005-4 0  9998", "line2": "2 39150  97.9317  67.7467 0018479 111.0246 249.2943 14.76495785682282"}}, "geometry": {"type": "Point", "coordinates": [72.64896883452495, -27.94805649751941]}}, {"type": "Feature", "properties": {"norad_id": 39160, "name": "VNREDSAT 1", "group": "resource", "lat": -70.72497707897175, "lon": 76.33656340650603, "alt_km": 685.3034206076418, "timestamp": "2025-12-23T22:42:32.635062+00:00", "meta": {"OBJECT_NAME": "VNREDSAT 1", "OBJECT_ID": "2013-021B", "EPOCH": "2025-12-23T06:38:46.579200", "MEAN_MOTION": 14.6493803, "ECCENTRICITY": 0.00011881, "INCLINATION": 97.9359, "RA_OF_ASC_NODE": 52.1823, "ARG_OF_PERICENTER": 82.3539, "MEAN_ANOMALY": 277.78, "EPHEMERIS_TYPE": 0, "CLASSIFICATION_TYPE": "U", "NORAD_CAT_ID": 39160, "ELEMENT_SET_NO": 999, "REV_AT_EPOCH": 67453, "BSTAR": 0.00015773426, "MEAN_MOTION_DOT": 7.98e-06, "MEAN_MOTION_DDOT": 0}, "tle": {"line1": "1 39160U 13021B   25357.27692800  .00000798  00000+0  15773-3 0  9991", "line2": "2 39160  97.9359  52.1823 0001188  82.3539 277.7800 14.64938030674536"}}, "geometry": {"type": "Point", "coordinates": [76.33656340650603, -70.72497707897175]}}, {"type": "Feature", "properties": {"norad_id": 39227, "name": "ARIRANG-5 (KOMPSAT-5)", "group": "resource", "lat": 18.932639179415993, "lon": 4.721781313782085, "alt_km": 554.6294663780591, "timestamp": "2025-12-23T22:42:32.635072+00:00", "meta": {"OBJECT_NAME": "ARIRANG-5 (KOMPSAT-5)", "OBJECT_ID": "2013-042A", "EPOCH": "2025-12-23T12:25:10.128576", "MEAN_MOTION": 15.04475755, "ECCENTRICITY": 0.0002978, "INCLINATION": 97.6167, "RA_OF_ASC_NODE": 181.6684, "ARG_OF_PERICENTER": 36.1213, "MEAN_ANOMALY": 324.0214, "EPHEMERIS_TYPE": 0, "CLASSIFICATION_TYPE": "U", "NORAD_CAT_ID": 39227, "ELEMENT_SET_NO": 999, "REV_AT_EPOCH": 67744, "BSTAR": 0.00012234, "MEAN_MOTION_DOT": 1.651e-05, "MEAN_MOTION_DDOT": 0}, "tle": {"line1": "1 39227U 13042A   25357.51747834  .00001651  00000+0  12234-3 0  9991", "line2": "2 39227  97.6167 181.6684 0002978  36.1213 324.0214 15.04475755677444"}}, "geometry": {"type": "Point", "coordinates": [4.721781313782085, 18.932639179415993]}}, {"type": "Feature", "properties": {"norad_id": 39418, "name": "SKYSAT-A", "group": "resource", "lat": 77.38873817624642, "lon": -96.62221036481903, "alt_km": 525.3460975643529, "timestamp": "2025-12-23T22:42:32.635083+00:00", "meta": {"OBJECT_NAME": "SKYSAT-A", "OBJECT_ID": "2013-066C", "EPOCH": "2025-12-23T03:12:07.887168", "MEAN_MOTION": 15.11675524, "ECCENTRICITY": 0.00214656, "INCLINATION": 97.4089, "RA_OF_ASC_NODE": 47.0259, "ARG_OF_PERICENTER": 199.0387, "MEAN_ANOMALY": 161.0043, "EPHEMERIS_TYPE": 0, "CLASSIFICATION_TYPE": "U", "NORAD_CAT_ID": 39418, "ELEMENT_SET_NO": 999, "REV_AT_EPOCH": 66187, "BSTAR": 0.00019916729, "MEAN_MOTION_DOT": 3.343e-05, "MEAN_MOTION_DDOT": 0}, "tle": {"line1": "1 39418U 13066C   25357.13342462  .00003343  00000+0  19917-3 0  9990", "line2": "2 39418  97.4089  47.0259 0021465 199.0387 161.0043 15.11675524661876"}}, "geometry": {"type": "Point", "coordinates": [-96.62221036481903, 77.38873817624642]}}, {"type": "Feature", "properties": {"norad_id": 39419, "name": "DUBAISAT-2", "group": "resource", "lat": 66.54192517655457, "lon": -174.45200631488308, "alt_km": 541.1323888804136, "timestamp": "2025-12-23T22:42:32.635093+00:00", "meta": {"OBJECT_NAME": "DUBAISAT-2", "OBJECT_ID": "2013-066D", "EPOCH": "2025-12-23T06:17:31.780032", "MEAN_MOTION": 15.08452921, "ECCENTRICITY": 0.00099881, "INCLINATION": 97.4454, "RA_OF_ASC_NODE": 347.3455, "ARG_OF_PERICENTER": 280.2729, "MEAN_ANOMALY": 79.7374, "EPHEMERIS_TYPE": 0, "CLASSIFICATION_TYPE": "U", "NORAD_CAT_ID": 39419, "ELEMENT_SET_NO": 999, "REV_AT_EPOCH": 65985, "BSTAR": 0.00042530654, "MEAN_MOTION_DOT": 6.571e-05, "MEAN_MOTION_DDOT": 0}, "tle": {"line1": "1 39419U 13066D   25357.26217338  .00006571  00000+0  42531-3 0  9992", "line2": "2 39419  97.4454 347.3455 0009988 280.2729  79.7374 15.08452921659853"}}, "geometry": {"type": "Point", "coordinates": [-174.45200631488308, 66.54192517655457]}}, {"type": "Feature", "properties": {"norad_id": 39574, "name": "GPM-CORE", "group": "resource", "lat": -51.86706595809899, "lon": 138.62909393379834, "alt_km": 434.43194305391535, "timestamp": "2025-12-23T22:42:32.635104+00:00", "meta": {"OBJECT_NAME": "GPM-CORE", "OBJECT_ID": "2014-009C", "EPOCH": "2025-12-23T01:12:53.161056", "MEAN_MOTION": 15.44616492, "ECCENTRICITY": 0.00092266, "INCLINATION": 64.9722, "RA_OF_ASC_NODE": 178.1525, "ARG_OF_PERICENTER": 249.5153, "MEAN_ANOMALY": 110.4998, "EPHEMERIS_TYPE": 0, "CLASSIFICATION_TYPE": "U", "NORAD_CAT_ID": 39574, "ELEMENT_SET_NO": 999, "REV_AT_EPOCH": 67060, "BSTAR": 0.00019310777, "MEAN_MOTION_DOT": 8.805e-05, "MEAN_MOTION_DDOT": 0}, "tle": {"line1": "1 39574U 14009C   25357.05061529  .00008805  00000+0  19311-3 0  9990", "line2": "2 39574  64.9722 178.1525 0009226 249.5153 110.4998 15.44616492670600"}}, "geometry": {"type": "Point", "coordinates": [138.62909393379834, -51.86706595809899]}}]}